{
  "type": "FeatureCollection",
  "features": [
    {
      "type": "Feature",
      "properties": {
        "norad_id": 64751,
        "name": "PROGRESS-MS 31",
        "group": "stations",
        "lat": 7.248015189103845,
        "lon": -100.2777689975636,
        "alt_km": 418.31644319149564,
        "timestamp": "2025-12-24T05:51:18.359377+00:00",
        "meta_object_name": "PROGRESS-MS 31",
        "meta_object_id": "2025-146A",
        "meta_epoch": "2025-12-23T18:17:18.636000",
        "meta_mean_motion": 15.49761422,
        "meta_eccentricity": 0.00031718,
        "meta_inclination": 51.6321,
        "meta_ra_of_asc_node": 87.8933,
        "meta_arg_of_pericenter": 292.1344,
        "meta_mean_anomaly": 67.9308,
        "meta_ephemeris_type": 0,
        "meta_classification_type": "U",
        "meta_norad_cat_id": 64751,
        "meta_element_set_no": 999,
        "meta_rev_at_epoch": 675,
        "meta_bstar": 0.00020966669,
        "meta_mean_motion_dot": 0.00011429,
        "meta_mean_motion_ddot": 0,
        "tle_line1": "1 64751U 25146A   25357.76202125  .00011429  00000+0  20967-3 0  9991",
        "tle_line2": "2 64751  51.6321  87.8933 0003171 292.1344  67.9308 15.49761422  6750"
      },
      "geometry": {
        "type": "Point",
        "coordinates": [
          -100.2777689975636,
          7.248015189103845
        ]
      }
    },
    {
      "type": "Feature",
      "properties": {
        "norad_id": 64786,
        "name": "TIANZHOU-9",
        "group": "stations",
        "lat": 5.681373318829912,
        "lon": -46.690842244808216,
        "alt_km": 390.58089454139554,
        "timestamp": "2025-12-24T05:51:18.359388+00:00",
        "meta_object_name": "TIANZHOU-9",
        "meta_object_id": "2025-149A",
        "meta_epoch": "2025-12-23T22:08:03.098976",
        "meta_mean_motion": 15.5961343,
        "meta_eccentricity": 0.00080636,
        "meta_inclination": 41.4684,
        "meta_ra_of_asc_node": 308.7959,
        "meta_arg_of_pericenter": 129.7983,
        "meta_mean_anomaly": 230.3567,
        "meta_ephemeris_type": 0,
        "meta_classification_type": "U",
        "meta_norad_cat_id": 64786,
        "meta_element_set_no": 999,
        "meta_rev_at_epoch": 25530,
        "meta_bstar": 0.00017429265,
        "meta_mean_motion_dot": 0.0001399,
        "meta_mean_motion_ddot": 0,
        "tle_line1": "1 64786U 25149A   25357.92225809  .00013990  00000+0  17429-3 0  9998",
        "tle_line2": "2 64786  41.4684 308.7959 0008063 129.7983 230.3567 15.59613430255305"
      },
      "geometry": {
        "type": "Point",
        "coordinates": [
          -46.690842244808216,
          5.681373318829912
        ]
      }
    },
    {
      "type": "Feature",
      "properties": {
        "norad_id": 65077,
        "name": "CREW DRAGON 11",
        "group": "stations",
        "lat": 7.24801413083158,
        "lon": -100.27776814243806,
        "alt_km": 418.31644330081053,
        "timestamp": "2025-12-24T05:51:18.359398+00:00",
        "meta_object_name": "CREW DRAGON 11",
        "meta_object_id": "2025-166A",
        "meta_epoch": "2025-12-23T18:17:18.636000",
        "meta_mean_motion": 15.49761422,
        "meta_eccentricity": 0.00031718,
        "meta_inclination": 51.6321,
        "meta_ra_of_asc_node": 87.8933,
        "meta_arg_of_pericenter": 292.1344,
        "meta_mean_anomaly": 67.9308,
        "meta_ephemeris_type": 0,
        "meta_classification_type": "U",
        "meta_norad_cat_id": 65077,
        "meta_element_set_no": 999,
        "meta_rev_at_epoch": 214,
        "meta_bstar": 0.00020966669,
        "meta_mean_motion_dot": 0.00011429,
        "meta_mean_motion_ddot": 0,
        "tle_line1": "1 65077U 25166A   25357.76202125  .00011429  00000+0  20967-3 0  9995",
        "tle_line2": "2 65077  51.6321  87.8933 0003171 292.1344  67.9308 15.49761422  2141"
      },
      "geometry": {
        "type": "Point",
        "coordinates": [
          -100.27776814243806,
          7.24801413083158
        ]
      }
    },
    {
      "type": "Feature",
      "properties": {
        "norad_id": 65304,
        "name": "DRAGON CRS-33",
        "group": "stations",
        "lat": 7.248013475711125,
        "lon": -100.27776761307501,
        "alt_km": 418.3164433684833,
        "timestamp": "2025-12-24T05:51:18.359411+00:00",
        "meta_object_name": "DRAGON CRS-33",
        "meta_object_id": "2025-186A",
        "meta_epoch": "2025-12-23T18:17:18.636000",
        "meta_mean_motion": 15.49761422,
        "meta_eccentricity": 0.00031718,
        "meta_inclination": 51.6321,
        "meta_ra_of_asc_node": 87.8933,
        "meta_arg_of_pericenter": 292.1344,
        "meta_mean_anomaly": 67.9308,
        "meta_ephemeris_type": 0,
        "meta_classification_type": "U",
        "meta_norad_cat_id": 65304,
        "meta_element_set_no": 999,
        "meta_rev_at_epoch": 11,
        "meta_bstar": 0.00020966669,
        "meta_mean_motion_dot": 0.00011429,
        "meta_mean_motion_ddot": 0,
        "tle_line1": "1 65304U 25186A   25357.76202125  .00011429  00000+0  20967-3 0  9990",
        "tle_line2": "2 65304  51.6321  87.8933 0003171 292.1344  67.9308 15.49761422   119"
      },
      "geometry": {
        "type": "Point",
        "coordinates": [
          -100.27776761307501,
          7.248013475711125
        ]
      }
    },
    {
      "type": "Feature",
      "properties": {
        "norad_id": 65586,
        "name": "PROGRESS-MS 32",
        "group": "stations",
        "lat": 7.2480129717721065,
        "lon": -100.27776720587251,
        "alt_km": 418.3164434205373,
        "timestamp": "2025-12-24T05:51:18.359421+00:00",
        "meta_object_name": "PROGRESS-MS 32",
        "meta_object_id": "2025-204A",
        "meta_epoch": "2025-12-23T18:17:18.636000",
        "meta_mean_motion": 15.49761422,
        "meta_eccentricity": 0.00031718,
        "meta_inclination": 51.6321,
        "meta_ra_of_asc_node": 87.8933,
        "meta_arg_of_pericenter": 292.1344,
        "meta_mean_anomaly": 67.9308,
        "meta_ephemeris_type": 0,
        "meta_classification_type": "U",
        "meta_norad_cat_id": 65586,
        "meta_element_set_no": 999,
        "meta_rev_at_epoch": 27,
        "meta_bstar": 0.00020966669,
        "meta_mean_motion_dot": 0.00011429,
        "meta_mean_motion_ddot": 0,
        "tle_line1": "1 65586U 25204A   25357.76202125  .00011429  00000+0  20967-3 0  9993",
        "tle_line2": "2 65586  51.6321  87.8933 0003171 292.1344  67.9308 15.49761422   278"
      },
      "geometry": {
        "type": "Point",
        "coordinates": [
          -100.27776720587251,
          7.2480129717721065
        ]
      }
    },
    {
      "type": "Feature",
      "properties": {
        "norad_id": 65616,
        "name": "CYGNUS NG-23",
        "group": "stations",
        "lat": 7.248012467832786,
        "lon": -100.27776679866976,
        "alt_km": 418.31644347259316,
        "timestamp": "2025-12-24T05:51:18.359431+00:00",
        "meta_object_name": "CYGNUS NG-23",
        "meta_object_id": "2025-208A",
        "meta_epoch": "2025-12-23T18:17:18.636000",
        "meta_mean_motion": 15.49761422,
        "meta_eccentricity": 0.00031718,
        "meta_inclination": 51.6321,
        "meta_ra_of_asc_node": 87.8933,
        "meta_arg_of_pericenter": 292.1344,
        "meta_mean_anomaly": 67.9308,
        "meta_ephemeris_type": 0,
        "meta_classification_type": "U",
        "meta_norad_cat_id": 65616,
        "meta_element_set_no": 999,
        "meta_rev_at_epoch": 22,
        "meta_bstar": 0.00020966669,
        "meta_mean_motion_dot": 0.00011429,
        "meta_mean_motion_ddot": 0,
        "tle_line1": "1 65616U 25208A   25357.76202125  .00011429  00000+0  20967-3 0  9991",
        "tle_line2": "2 65616  51.6321  87.8933 0003171 292.1344  67.9308 15.49761422   227"
      },
      "geometry": {
        "type": "Point",
        "coordinates": [
          -100.27776679866976,
          7.248012467832786
        ]
      }
    },
    {
      "type": "Feature",
      "properties": {
        "norad_id": 65729,
        "name": "DRAGONFLY",
        "group": "stations",
        "lat": 48.27194832248838,
        "lon": 139.377439721231,
        "alt_km": 335.3534461466579,
        "timestamp": "2025-12-24T05:51:18.359441+00:00",
        "meta_object_name": "DRAGONFLY",
        "meta_object_id": "1998-067XH",
        "meta_epoch": "2025-12-23T20:25:05.088576",
        "meta_mean_motion": 15.75691261,
        "meta_eccentricity": 0.0007924,
        "meta_inclination": 51.6249,
        "meta_ra_of_asc_node": 78.7101,
        "meta_arg_of_pericenter": 343.6586,
        "meta_mean_anomaly": 16.4157,
        "meta_ephemeris_type": 0,
        "meta_classification_type": "U",
        "meta_norad_cat_id": 65729,
        "meta_element_set_no": 999,
        "meta_rev_at_epoch": 1491,
        "meta_bstar": 0.0011533636,
        "meta_mean_motion_dot": 0.00184258,
        "meta_mean_motion_ddot": 0,
        "tle_line1": "1 65729U 98067XH  25357.85075334  .00184258  00000+0  11534-2 0  9999",
        "tle_line2": "2 65729  51.6249  78.7101 0007924 343.6586  16.4157 15.75691261 14911"
      },
      "geometry": {
        "type": "Point",
        "coordinates": [
          139.377439721231,
          48.27194832248838
        ]
      }
    }
  ]
}